[{"OBJECT_NAME":"STARLINK-31085","OBJECT_ID":"2023-200W","EPOCH":"2026-03-09T22:00:01.999584","MEAN_MOTION":15.26753513,"ECCENTRICITY":0.00010517,"INCLINATION":42.9993,"RA_OF_ASC_NODE":167.5665,"ARG_OF_PERICENTER":272.2063,"MEAN_ANOMALY":154.8258,"EPHEMERIS_TYPE":0,"CLASSIFICATION_TYPE":"U","NORAD_CAT_ID":58609,"ELEMENT_SET_NO":999,"REV_AT_EPOCH":577,"BSTAR":-0.00025109095,"MEAN_MOTION_DOT":-6.991e-5,"MEAN_MOTION_DDOT":0},{"OBJECT_NAME":"CZ-2D R\/B","OBJECT_ID":"2025-227B","EPOCH":"2026-03-09T22:11:26.043072","MEAN_MOTION":15.30393637,"ECCENTRICITY":0.00198129,"INCLINATION":80.1514,"RA_OF_ASC_NODE":267.3771,"ARG_OF_PERICENTER":270.3655,"MEAN_ANOMALY":89.5307,"EPHEMERIS_TYPE":0,"CLASSIFICATION_TYPE":"U","NORAD_CAT_ID":65946,"ELEMENT_SET_NO":999,"REV_AT_EPOCH":2254,"BSTAR":0.00032251975,"MEAN_MOTION_DOT":9.557e-5,"MEAN_MOTION_DDOT":0}]
